2025-08-08 20:38:17,378 - __main__ - INFO - å¯åŠ¨STKæ»šåŠ¨å…ƒä»»åŠ¡æ•°æ®é‡‡é›†ç³»ç»Ÿ
2025-08-08 20:38:17,378 - __main__ - INFO - ================================================================================
2025-08-08 20:38:17,378 - __main__ - INFO - ä¼šè¯åç§°: é»˜è®¤æ—¶é—´æˆ³
2025-08-08 20:38:17,379 - __main__ - INFO - ç”˜ç‰¹å›¾ç”Ÿæˆ: å¯ç”¨ (é»˜è®¤)
2025-08-08 20:38:17,388 - src.meta_task_main - INFO - ğŸ¯ åˆå§‹åŒ–å…ƒä»»åŠ¡æ•°æ®é‡‡é›†ç³»ç»Ÿ...
2025-08-08 20:38:17,391 - src.utils.time_manager - INFO - â° ä»¿çœŸæ—¶é—´é…ç½®åŠ è½½æˆåŠŸ:
2025-08-08 20:38:17,391 - src.utils.time_manager - INFO -    å¼€å§‹æ—¶é—´: 2025-08-06 00:00:00
2025-08-08 20:38:17,391 - src.utils.time_manager - INFO -    ç»“æŸæ—¶é—´: 2025-08-13 00:00:00
2025-08-08 20:38:17,393 - src.utils.time_manager - INFO -    åŸºå‡†æ—¶é—´: 2025-08-06 00:00:00
2025-08-08 20:38:17,393 - src.utils.time_manager - INFO -    åœºæ™¯æ—¶é•¿: 7 days, 0:00:00
2025-08-08 20:38:17,393 - src.utils.time_manager - INFO - ğŸ• æ—¶é—´ç®¡ç†å™¨åˆå§‹åŒ–å®Œæˆ:
2025-08-08 20:38:17,393 - src.utils.time_manager - INFO -    ä»¿çœŸæ—¶é—´èŒƒå›´: 2025-08-06 00:00:00 - 2025-08-13 00:00:00
2025-08-08 20:38:17,393 - src.utils.time_manager - INFO -    å†å…ƒæ—¶é—´: 2025-08-06 00:00:00
2025-08-08 20:38:17,393 - src.utils.time_manager - INFO -    æ•°æ®é‡‡é›†é—´éš”: [60, 300]ç§’
2025-08-08 20:38:17,393 - src.utils.time_manager - INFO -    ä¿å­˜é¢‘ç‡: æ¯10æ¬¡é‡‡é›†ä¿å­˜ä¸€æ¬¡
2025-08-08 20:38:17,393 - src.utils.time_manager - INFO -    æ€»é‡‡é›†æ¬¡æ•°ç›®æ ‡: 50æ¬¡
2025-08-08 20:38:17,393 - src.utils.time_manager - INFO -    å¯¼å¼¹å‘å°„é—´éš”: [300, 1800]ç§’
2025-08-08 20:38:17,393 - src.constellation.constellation_manager - INFO - ğŸŒŸ æ˜Ÿåº§ç®¡ç†å™¨åˆå§‹åŒ–å®Œæˆ
2025-08-08 20:38:17,394 - src.stk_interface.missile_manager - INFO - ğŸš€ å¯¼å¼¹ç®¡ç†å™¨åˆå§‹åŒ–å®Œæˆï¼Œæ€§èƒ½ç¼“å­˜å·²å‡†å¤‡
2025-08-08 20:38:17,394 - src.stk_interface.visibility_calculator - INFO - ğŸ‘ï¸ å¯è§æ€§è®¡ç®—å™¨åˆå§‹åŒ–å®Œæˆï¼Œå¯¹è±¡ç¼“å­˜å·²å‡†å¤‡
2025-08-08 20:38:17,394 - src.data_collection.data_collector - INFO - ğŸ“Š æ•°æ®é‡‡é›†å™¨åˆå§‹åŒ–å®Œæˆ
2025-08-08 20:38:17,394 - src.meta_task.meta_task_manager - INFO - ğŸ¯ å…ƒä»»åŠ¡ç®¡ç†å™¨åˆå§‹åŒ–å®Œæˆï¼Œæ‰¹é‡å¤„ç†å·²å‡†å¤‡
2025-08-08 20:38:17,394 - src.meta_task.meta_task_manager - INFO -    å…ƒå­ä»»åŠ¡æ—¶é—´é—´éš”: 300ç§’
2025-08-08 20:38:17,411 - src.meta_task.parallel_position_manager - INFO - ğŸ’¾ ä½ç½®ç¼“å­˜: ç¦ç”¨
2025-08-08 20:38:17,411 - src.meta_task.parallel_position_manager - INFO - ğŸš€ å¹¶è¡Œä½ç½®ç®¡ç†å™¨åˆå§‹åŒ–å®Œæˆ
2025-08-08 20:38:17,411 - src.meta_task.parallel_position_manager - INFO -    æœ€å¤§å·¥ä½œçº¿ç¨‹: 8
2025-08-08 20:38:17,412 - src.meta_task.parallel_position_manager - INFO -    æ‰¹å¤„ç†å¤§å°: 20
2025-08-08 20:38:17,412 - src.meta_task.satellite_position_synchronizer - INFO - ğŸ›°ï¸ å«æ˜Ÿä½ç½®åŒæ­¥å™¨åˆå§‹åŒ–å®Œæˆ
2025-08-08 20:38:17,412 - src.meta_task.satellite_position_synchronizer - INFO -    é‡‡æ ·é—´éš”: 30ç§’
2025-08-08 20:38:17,412 - src.meta_task.satellite_position_synchronizer - INFO -    æœ€å¤§é‡‡æ ·ç‚¹æ•°: 20
2025-08-08 20:38:17,412 - src.meta_task.satellite_position_synchronizer - INFO -    ç»Ÿè®¡è®¡ç®—: å¯ç”¨
2025-08-08 20:38:17,412 - src.meta_task.satellite_position_synchronizer - INFO -    å¹¶å‘å¤„ç†: å¯ç”¨
2025-08-08 20:38:17,413 - src.meta_task.satellite_position_synchronizer - INFO -    å¹¶è¡Œä¼˜åŒ–: å¯ç”¨
2025-08-08 20:38:17,413 - src.meta_task.satellite_position_synchronizer - INFO -    æœ€å¤§å·¥ä½œçº¿ç¨‹: 4
2025-08-08 20:38:17,413 - src.meta_task.satellite_position_synchronizer - INFO -    æ‰¹å¤„ç†å¤§å°: 10
2025-08-08 20:38:17,413 - src.meta_task.visible_meta_task_calculator - INFO - ğŸ›°ï¸ ä½ç½®åŒæ­¥å™¨å·²å¯ç”¨
2025-08-08 20:38:17,413 - src.meta_task.visible_meta_task_calculator - INFO - ğŸ‘ï¸ å¯è§å…ƒå­ä»»åŠ¡è®¡ç®—å™¨åˆå§‹åŒ–å®Œæˆ
2025-08-08 20:38:17,413 - src.meta_task.visible_meta_task_calculator - INFO -    è¦†ç›–è¦æ±‚: partial
2025-08-08 20:38:17,413 - src.meta_task.visible_meta_task_calculator - INFO -    æœ€å°é‡å æ¯”ä¾‹: 0.8
2025-08-08 20:38:17,413 - src.meta_task.visible_meta_task_calculator - INFO -    ä½ç½®åŒæ­¥: å¯ç”¨
2025-08-08 20:38:17,413 - src.meta_task.meta_task_data_collector - INFO - ğŸ¯ å…ƒä»»åŠ¡æ•°æ®é‡‡é›†å™¨åˆå§‹åŒ–å®Œæˆ
2025-08-08 20:38:17,763 - src.meta_task.rolling_data_collector - INFO - ğŸ”„ æ»šåŠ¨æ•°æ®é‡‡é›†ç®¡ç†å™¨åˆå§‹åŒ–å®Œæˆ
2025-08-08 20:38:17,763 - src.meta_task.rolling_data_collector - INFO -    æ€»é‡‡é›†æ¬¡æ•°: 2000
2025-08-08 20:38:17,763 - src.meta_task.rolling_data_collector - INFO -    é‡‡é›†é—´éš”: 180-300ç§’
2025-08-08 20:38:17,763 - src.meta_task.rolling_data_collector - INFO -    æœ€å¤§åœºæ™¯æŒç»­æ—¶é—´: 6048000ç§’ (1680.0å°æ—¶)
2025-08-08 20:38:17,764 - src.meta_task.rolling_data_collector - INFO -    å¯¼å¼¹æ•°é‡èŒƒå›´: 3-8
2025-08-08 20:38:17,764 - src.meta_task.rolling_data_collector - INFO -    å¯¼å¼¹æ± ä¼˜åŒ–: å¯ç”¨
2025-08-08 20:38:17,764 - src.meta_task_main - INFO - âœ… å…ƒä»»åŠ¡æ•°æ®é‡‡é›†ç³»ç»Ÿåˆå§‹åŒ–å®Œæˆ
2025-08-08 20:38:17,764 - __main__ - INFO - ğŸ“‹ æ»šåŠ¨é‡‡é›†é…ç½®:
2025-08-08 20:38:17,764 - __main__ - INFO -    æ€»é‡‡é›†æ¬¡æ•°: 2000
2025-08-08 20:38:17,764 - __main__ - INFO -    é‡‡é›†é—´éš”: 180-300ç§’
2025-08-08 20:38:17,764 - __main__ - INFO -    å¯¼å¼¹æ•°é‡èŒƒå›´: [3, 8]
2025-08-08 20:38:17,764 - __main__ - INFO -    æ¸…ç†ç°æœ‰å¯¼å¼¹: False
2025-08-08 20:38:17,764 - __main__ - INFO -    è¾“å‡ºç›®å½•: å°†ç”±ç»Ÿä¸€æ•°æ®ç®¡ç†å™¨åˆ›å»º
2025-08-08 20:38:17,765 - __main__ - INFO - 
ğŸš€ å¼€å§‹æ»šåŠ¨æ•°æ®é‡‡é›†...
2025-08-08 20:38:17,765 - src.meta_task_main - INFO - ğŸ”„ å¯åŠ¨æ»šåŠ¨æ•°æ®é‡‡é›†ç³»ç»Ÿ...
2025-08-08 20:38:17,765 - src.meta_task_main - INFO - ğŸ”§ è®¾ç½®STKç¯å¢ƒ...
2025-08-08 20:38:21,106 - src.stk_interface.stk_manager - INFO - âœ… åˆ›å»ºæ–°çš„STKå®ä¾‹
2025-08-08 20:38:21,120 - src.stk_interface.stk_manager - INFO - ğŸ”§ å½“å‰æ— åœºæ™¯ï¼Œåˆ›å»ºæ–°åœºæ™¯...
2025-08-08 20:38:28,024 - src.stk_interface.stk_manager - INFO - âœ… åˆ›å»ºæ–°åœºæ™¯: RefactoredScenario
2025-08-08 20:38:28,502 - src.stk_interface.stk_manager - INFO - âœ… åœºæ™¯æ—¶é—´è®¾ç½®: 6 Aug 2025 00:00:00.000 - 13 Aug 2025 00:00:00.000
2025-08-08 20:38:28,526 - src.stk_interface.stk_manager - INFO - âœ… STKè¿æ¥æˆåŠŸï¼Œåœºæ™¯: RefactoredScenario
2025-08-08 20:38:28,526 - src.meta_task_main - INFO - âœ… STKç¯å¢ƒè®¾ç½®å®Œæˆ
2025-08-08 20:38:28,526 - src.meta_task_main - INFO - ğŸŒŸ è®¾ç½®Walkeræ˜Ÿåº§...
2025-08-08 20:38:28,526 - src.constellation.constellation_manager - INFO - ğŸŒŸ å¼€å§‹åˆ›å»ºWalkeræ˜Ÿåº§...
2025-08-08 20:38:28,572 - src.constellation.constellation_manager - INFO - ğŸ“Š æ˜Ÿåº§é…ç½®: Walker, 3ä¸ªè½¨é“é¢, æ¯é¢3é¢—å«æ˜Ÿ
2025-08-08 20:38:28,572 - src.utils.walker_constellation_calculator.WalkerConstellationCalculator - INFO - âœ… Walkerå‚æ•°éªŒè¯é€šè¿‡: W(9, 3, 1)
2025-08-08 20:38:28,573 - src.utils.walker_constellation_calculator.WalkerConstellationCalculator - INFO - ğŸŒŸ å¼€å§‹è®¡ç®—Walkeræ˜Ÿåº§è½¨é“å‚æ•°
2025-08-08 20:38:28,573 - src.utils.walker_constellation_calculator.WalkerConstellationCalculator - INFO -    æ˜Ÿåº§é…ç½®: W(9, 3, 1)
2025-08-08 20:38:28,573 - src.utils.walker_constellation_calculator.WalkerConstellationCalculator - INFO -    æ¨¡å¼ç±»å‹: delta
2025-08-08 20:38:28,573 - src.utils.walker_constellation_calculator.WalkerConstellationCalculator - INFO -    å‚è€ƒè½¨é“: é«˜åº¦=1600km, å€¾è§’=97.6Â°
2025-08-08 20:38:28,573 - src.utils.walker_constellation_calculator.WalkerConstellationCalculator - INFO -    åŠé•¿è½´: 7971.0km
2025-08-08 20:38:28,573 - src.utils.walker_constellation_calculator.WalkerConstellationCalculator - INFO -    RAANé—´éš”: 120.0Â°
2025-08-08 20:38:28,573 - src.utils.walker_constellation_calculator.WalkerConstellationCalculator - INFO -    å¹³è¿‘ç‚¹è§’é—´éš”: 120.0Â°
2025-08-08 20:38:28,574 - src.utils.walker_constellation_calculator.WalkerConstellationCalculator - INFO - âœ… Walkeræ˜Ÿåº§è½¨é“è®¡ç®—å®Œæˆï¼Œå…±9é¢—å«æ˜Ÿ
2025-08-08 20:38:28,574 - src.constellation.constellation_manager - INFO - ğŸ“Š Walkeræ˜Ÿåº§è®¡ç®—å®Œæˆ:
2025-08-08 20:38:28,574 - src.constellation.constellation_manager - INFO -    æ˜Ÿåº§è®°å·: W(9, 3, 1)
2025-08-08 20:38:28,574 - src.constellation.constellation_manager - INFO -    æ¨¡å¼ç±»å‹: delta
2025-08-08 20:38:28,574 - src.constellation.constellation_manager - INFO -    RAANé—´éš”: 120.0Â°
2025-08-08 20:38:28,574 - src.constellation.constellation_manager - INFO -    å¹³è¿‘ç‚¹è§’é—´éš”: 120.0Â°
2025-08-08 20:38:28,574 - src.constellation.constellation_manager - INFO -    ç›¸ä½åç§»: 40.0Â°/é¢
2025-08-08 20:38:28,719 - src.stk_interface.stk_manager - INFO - ğŸ›°ï¸ åˆ›å»ºå«æ˜Ÿå¯¹è±¡: Satellite01
2025-08-08 20:38:30,747 - src.stk_interface.stk_manager - INFO - âœ… ä¼ æ’­å™¨ç±»å‹è®¾ç½®æˆåŠŸ
2025-08-08 20:38:30,748 - src.stk_interface.stk_manager - INFO - âœ… å‚æ•° semi_axis = 7971.0 éªŒè¯é€šè¿‡
2025-08-08 20:38:30,748 - src.stk_interface.stk_manager - INFO - âœ… å‚æ•° eccentricity = 0.0 éªŒè¯é€šè¿‡
2025-08-08 20:38:30,748 - src.stk_interface.stk_manager - INFO - âœ… å‚æ•° inclination = 97.6 éªŒè¯é€šè¿‡
2025-08-08 20:38:30,748 - src.stk_interface.stk_manager - INFO - âœ… å‚æ•° raan = 0.0 éªŒè¯é€šè¿‡
2025-08-08 20:38:30,748 - src.stk_interface.stk_manager - INFO - âœ… å‚æ•° arg_of_perigee = 0.0 éªŒè¯é€šè¿‡
2025-08-08 20:38:30,748 - src.stk_interface.stk_manager - INFO - âœ… å‚æ•° mean_anomaly = 0.0 éªŒè¯é€šè¿‡
2025-08-08 20:38:30,748 - src.stk_interface.stk_manager - INFO - ğŸ”„ ä½¿ç”¨Kepleriané«˜åº¦æ–¹æ³•...
2025-08-08 20:38:31,150 - src.stk_interface.stk_manager - INFO - âœ… Kepleriané«˜åº¦æ–¹æ³•æˆåŠŸ
2025-08-08 20:38:31,259 - src.stk_interface.stk_manager - INFO - âœ… åœ°é¢è½¨è¿¹é…ç½®æˆåŠŸ
2025-08-08 20:38:31,266 - src.stk_interface.stk_manager - INFO - âœ… å«æ˜Ÿåˆ›å»ºæˆåŠŸ: Satellite01
2025-08-08 20:38:31,446 - src.stk_interface.stk_manager - INFO - ğŸ”­ åˆ›å»ºä¼ æ„Ÿå™¨: Satellite01_Payload
2025-08-08 20:38:32,469 - src.stk_interface.stk_manager - INFO - âœ“ ä¼ æ„Ÿå™¨æ¨¡å¼è®¾ç½®ä¸ºåœ†é”¥
2025-08-08 20:38:32,684 - src.stk_interface.stk_manager - INFO - âœ“ è·å–Patternå¯¹è±¡æˆåŠŸï¼Œç±»å‹: <class 'win32com.client.CDispatch'>
